start=new Date('2021-09-14T00:00:00.000Z').valueOf();
sats=[{"GP_ID":"184665252","OBJECT_TYPE":"PAYLOAD","PERIAPSIS":"547.064","REV_AT_EPOCH":"1829","TIME_SYSTEM":"UTC","OBJECT_NAME":"STARLINK-2191","DECAY_DATE":null,"RCS_SIZE":"LARGE","EPOCH":"2021-09-13T12:26:17.470464","MEAN_ELEMENT_THEORY":"SGP4","APOAPSIS":"547.458","MEAN_MOTION":"15.06384551","ECCENTRICITY":"0.00002850","TLE_LINE2":"2 48565  53.0570 285.6475 0000285 101.1811 258.9210 15.06384551 18290","SITE":"AFETR","TLE_LINE1":"1 48565U 21041N   21256.51825776 -.00000612  00000-0 -22219-4 0  9994","INCLINATION":"53.0570","LAUNCH_DATE":"2021-05-15","BSTAR":"-0.00002221900000","CLASSIFICATION_TYPE":"U","PERIOD":"95.593","MEAN_MOTION_DOT":"-0.00000612","MEAN_ANOMALY":"258.9210","EPHEMERIS_TYPE":"0","SEMIMAJOR_AXIS":"6925.396","REF_FRAME":"TEME","COUNTRY_CODE":"US","RA_OF_ASC_NODE":"285.6475","ELEMENT_SET_NO":"999","MEAN_MOTION_DDOT":"0.0000000000000","FILE":"3115005","ARG_OF_PERICENTER":"101.1811","OBJECT_ID":"2021-041N","CENTER_NAME":"EARTH","NORAD_CAT_ID":"48565"},{"OBJECT_ID":"2021-041P","CENTER_NAME":"EARTH","NORAD_CAT_ID":"48566","RA_OF_ASC_NODE":"295.8409","COUNTRY_CODE":"US","ELEMENT_SET_NO":"999","MEAN_MOTION_DDOT":"0.0000000000000","FILE":"3114943","ARG_OF_PERICENTER":"113.4118","MEAN_MOTION_DOT":"-0.00000513","MEAN_ANOMALY":"246.6949","EPHEMERIS_TYPE":"0","SEMIMAJOR_AXIS":"6925.367","REF_FRAME":"TEME","SITE":"AFETR","TLE_LINE1":"1 48566U 21041P   21256.47584490 -.00000513  00000-0 -15591-4 0  9990","INCLINATION":"53.0553","LAUNCH_DATE":"2021-05-15","BSTAR":"-0.00001559100000","PERIOD":"95.593","CLASSIFICATION_TYPE":"U","ECCENTRICITY":"0.00007460","TLE_LINE2":"2 48566  53.0553 295.8409 0000746 113.4118 246.6949 15.06393966 18541","APOAPSIS":"547.749","MEAN_MOTION":"15.06393966","DECAY_DATE":null,"RCS_SIZE":"LARGE","EPOCH":"2021-09-13T11:25:12.999360","MEAN_ELEMENT_THEORY":"SGP4","GP_ID":"184640667","OBJECT_TYPE":"PAYLOAD","PERIAPSIS":"546.715","REV_AT_EPOCH":"1854","TIME_SYSTEM":"UTC","OBJECT_NAME":"STARLINK-2214"},{"ARG_OF_PERICENTER":"87.7287","FILE":"3114943","COUNTRY_CODE":"US","RA_OF_ASC_NODE":"293.8589","ELEMENT_SET_NO":"999","MEAN_MOTION_DDOT":"0.0000000000000","CENTER_NAME":"EARTH","NORAD_CAT_ID":"48567","OBJECT_ID":"2021-041Q","LAUNCH_DATE":"2021-05-15","BSTAR":"0.00171220000000","CLASSIFICATION_TYPE":"U","PERIOD":"95.594","SITE":"AFETR","TLE_LINE1":"1 48567U 21041Q   21256.91668981  .00025292  00000-0  17122-2 0  9997","INCLINATION":"53.0534","EPHEMERIS_TYPE":"0","MEAN_ANOMALY":"79.2887","REF_FRAME":"TEME","SEMIMAJOR_AXIS":"6925.446","MEAN_MOTION_DOT":"0.00025292","MEAN_MOTION":"15.06368219","APOAPSIS":"547.790","ECCENTRICITY":"0.00006920","TLE_LINE2":"2 48567  53.0534 293.8589 0000692  87.7287  79.2887 15.06368219 18609","REV_AT_EPOCH":"1860","TIME_SYSTEM":"UTC","OBJECT_NAME":"STARLINK-2215","GP_ID":"184640668","OBJECT_TYPE":"PAYLOAD","PERIAPSIS":"546.832","MEAN_ELEMENT_THEORY":"SGP4","DECAY_DATE":null,"RCS_SIZE":"LARGE","EPOCH":"2021-09-13T22:00:01.999584"},{"CENTER_NAME":"EARTH","NORAD_CAT_ID":"48568","OBJECT_ID":"2021-041R","ARG_OF_PERICENTER":"127.6904","FILE":"3114796","COUNTRY_CODE":"US","RA_OF_ASC_NODE":"286.3596","ELEMENT_SET_NO":"999","MEAN_MOTION_DDOT":"0.0000000000000","MEAN_ANOMALY":"232.4140","EPHEMERIS_TYPE":"0","SEMIMAJOR_AXIS":"6925.353","REF_FRAME":"TEME","MEAN_MOTION_DOT":"0.00001090","LAUNCH_DATE":"2021-05-15","BSTAR":"0.00009201400000","PERIOD":"95.592","CLASSIFICATION_TYPE":"U","SITE":"AFETR","TLE_LINE1":"1 48568U 21041R   21256.36712742  .00001090  00000-0  92014-4 0  9997","INCLINATION":"53.0478","ECCENTRICITY":"0.00006030","TLE_LINE2":"2 48568  53.0478 286.3596 0000603 127.6904 232.4140 15.06398559 18261","MEAN_MOTION":"15.06398559","APOAPSIS":"547.636","MEAN_ELEMENT_THEORY":"SGP4","DECAY_DATE":null,"RCS_SIZE":"LARGE","EPOCH":"2021-09-13T08:48:39.809088","REV_AT_EPOCH":"1826","TIME_SYSTEM":"UTC","OBJECT_NAME":"STARLINK-2217","GP_ID":"184637248","OBJECT_TYPE":"PAYLOAD","PERIAPSIS":"546.800"},{"MEAN_ANOMALY":"243.6742","EPHEMERIS_TYPE":"0","SEMIMAJOR_AXIS":"6925.351","REF_FRAME":"TEME","MEAN_MOTION_DOT":"-0.00000224","LAUNCH_DATE":"2021-05-15","BSTAR":"0.00000382420000","PERIOD":"95.592","CLASSIFICATION_TYPE":"U","SITE":"AFETR","TLE_LINE1":"1 48569U 21041S   21256.85736011 -.00000224  00000-0  38242-5 0  9990","INCLINATION":"53.0564","CENTER_NAME":"EARTH","NORAD_CAT_ID":"48569","OBJECT_ID":"2021-041S","ARG_OF_PERICENTER":"116.4284","FILE":"3115005","RA_OF_ASC_NODE":"284.1353","COUNTRY_CODE":"US","ELEMENT_SET_NO":"999","MEAN_MOTION_DDOT":"0.0000000000000","MEAN_ELEMENT_THEORY":"SGP4","DECAY_DATE":null,"EPOCH":"2021-09-13T20:34:35.913504","RCS_SIZE":"LARGE","REV_AT_EPOCH":"1834","TIME_SYSTEM":"UTC","OBJECT_NAME":"STARLINK-2219","GP_ID":"184664928","OBJECT_TYPE":"PAYLOAD","PERIAPSIS":"546.964","ECCENTRICITY":"0.00003640","TLE_LINE2":"2 48569  53.0564 284.1353 0000364 116.4284 243.6742 15.06399183 18341","MEAN_MOTION":"15.06399183","APOAPSIS":"547.468"},{"DECAY_DATE":null,"RCS_SIZE":"LARGE","EPOCH":"2021-09-13T22:00:01.999584","MEAN_ELEMENT_THEORY":"SGP4","OBJECT_TYPE":"PAYLOAD","PERIAPSIS":"546.929","GP_ID":"184641171","TIME_SYSTEM":"UTC","OBJECT_NAME":"STARLINK-2220","REV_AT_EPOCH":"1860","TLE_LINE2":"2 48570  53.0534 293.8648 0000497  80.7593 306.1871 15.06380383 18606","ECCENTRICITY":"0.00004970","APOAPSIS":"547.618","MEAN_MOTION":"15.06380383","MEAN_MOTION_DOT":"0.00029145","EPHEMERIS_TYPE":"0","MEAN_ANOMALY":"306.1871","REF_FRAME":"TEME","SEMIMAJOR_AXIS":"6925.409","INCLINATION":"53.0534","SITE":"AFETR","TLE_LINE1":"1 48570U 21041T   21256.91668981  .00029145  00000-0  19685-2 0  9998","PERIOD":"95.593","CLASSIFICATION_TYPE":"U","BSTAR":"0.00196850000000","LAUNCH_DATE":"2021-05-15","OBJECT_ID":"2021-041T","NORAD_CAT_ID":"48570","CENTER_NAME":"EARTH","MEAN_MOTION_DDOT":"0.0000000000000","RA_OF_ASC_NODE":"293.8648","COUNTRY_CODE":"US","ELEMENT_SET_NO":"999","FILE":"3114943","ARG_OF_PERICENTER":"80.7593"},{"REV_AT_EPOCH":"1816","TIME_SYSTEM":"UTC","OBJECT_NAME":"STARLINK-2221","GP_ID":"184665176","OBJECT_TYPE":"PAYLOAD","PERIAPSIS":"546.783","MEAN_ELEMENT_THEORY":"SGP4","DECAY_DATE":null,"RCS_SIZE":"LARGE","EPOCH":"2021-09-13T14:05:48.200352","MEAN_MOTION":"15.06398755","APOAPSIS":"547.652","ECCENTRICITY":"0.00006270","TLE_LINE2":"2 48571  53.0551 295.3408 0000627  95.4343 264.6718 15.06398755 18169","LAUNCH_DATE":"2021-05-15","BSTAR":"0.00019763000000","PERIOD":"95.592","CLASSIFICATION_TYPE":"U","SITE":"AFETR","TLE_LINE1":"1 48571U 21041U   21256.58736343  .00002664  00000-0  19763-3 0  9995","INCLINATION":"53.0551","EPHEMERIS_TYPE":"0","MEAN_ANOMALY":"264.6718","REF_FRAME":"TEME","SEMIMAJOR_AXIS":"6925.352","MEAN_MOTION_DOT":"0.00002664","ARG_OF_PERICENTER":"95.4343","FILE":"3115005","COUNTRY_CODE":"US","RA_OF_ASC_NODE":"295.3408","ELEMENT_SET_NO":"999","MEAN_MOTION_DDOT":"0.0000000000000","CENTER_NAME":"EARTH","NORAD_CAT_ID":"48571","OBJECT_ID":"2021-041U"},{"EPHEMERIS_TYPE":"0","MEAN_ANOMALY":"250.6945","SEMIMAJOR_AXIS":"6925.374","REF_FRAME":"TEME","MEAN_MOTION_DOT":"-0.00000390","CLASSIFICATION_TYPE":"U","PERIOD":"95.593","LAUNCH_DATE":"2021-05-15","BSTAR":"-0.00000731720000","INCLINATION":"53.0549","SITE":"AFETR","TLE_LINE1":"1 48572U 21041V   21256.58368355 -.00000390  00000-0 -73172-5 0  9992","NORAD_CAT_ID":"48572","CENTER_NAME":"EARTH","OBJECT_ID":"2021-041V","FILE":"3115005","ARG_OF_PERICENTER":"109.4104","MEAN_MOTION_DDOT":"0.0000000000000","COUNTRY_CODE":"US","RA_OF_ASC_NODE":"295.3526","ELEMENT_SET_NO":"999","MEAN_ELEMENT_THEORY":"SGP4","DECAY_DATE":null,"RCS_SIZE":"LARGE","EPOCH":"2021-09-13T14:00:30.258720","TIME_SYSTEM":"UTC","OBJECT_NAME":"STARLINK-2222","REV_AT_EPOCH":"1816","OBJECT_TYPE":"PAYLOAD","PERIAPSIS":"546.859","GP_ID":"184664759","TLE_LINE2":"2 48572  53.0549 295.3526 0000549 109.4104 250.6945 15.06391637 18161","ECCENTRICITY":"0.00005490","MEAN_MOTION":"15.06391637","APOAPSIS":"547.619"},{"RCS_SIZE":"LARGE","EPOCH":"2021-09-13T11:54:26.108928","DECAY_DATE":null,"MEAN_ELEMENT_THEORY":"SGP4","PERIAPSIS":"546.989","OBJECT_TYPE":"PAYLOAD","GP_ID":"184640691","OBJECT_NAME":"STARLINK-2224","TIME_SYSTEM":"UTC","REV_AT_EPOCH":"1873","TLE_LINE2":"2 48573  53.0473 285.7720 0000301 134.0543 226.0471 15.06405206 18736","ECCENTRICITY":"0.00003010","APOAPSIS":"547.406","MEAN_MOTION":"15.06405206","MEAN_MOTION_DOT":"0.00001639","REF_FRAME":"TEME","SEMIMAJOR_AXIS":"6925.333","MEAN_ANOMALY":"226.0471","EPHEMERIS_TYPE":"0","INCLINATION":"53.0473","TLE_LINE1":"1 48573U 21041W   21256.49613552  .00001639  00000-0  12882-3 0  9999","SITE":"AFETR","CLASSIFICATION_TYPE":"U","PERIOD":"95.592","LAUNCH_DATE":"2021-05-15","BSTAR":"0.00012882000000","OBJECT_ID":"2021-041W","NORAD_CAT_ID":"48573","CENTER_NAME":"EARTH","MEAN_MOTION_DDOT":"0.0000000000000","ELEMENT_SET_NO":"999","RA_OF_ASC_NODE":"285.7720","COUNTRY_CODE":"US","ARG_OF_PERICENTER":"134.0543","FILE":"3114946"},{"ECCENTRICITY":"0.00024060","TLE_LINE2":"2 48574  53.0543 264.9254 0002406  27.6253 176.0699 15.42152174 19009","APOAPSIS":"441.401","MEAN_MOTION":"15.42152174","RCS_SIZE":"LARGE","EPOCH":"2021-09-13T22:00:01.999584","DECAY_DATE":null,"MEAN_ELEMENT_THEORY":"SGP4","GP_ID":"184640678","PERIAPSIS":"438.120","OBJECT_TYPE":"PAYLOAD","REV_AT_EPOCH":"1900","OBJECT_NAME":"STARLINK-2225","TIME_SYSTEM":"UTC","OBJECT_ID":"2021-041X","CENTER_NAME":"EARTH","NORAD_CAT_ID":"48574","ELEMENT_SET_NO":"999","RA_OF_ASC_NODE":"264.9254","COUNTRY_CODE":"US","MEAN_MOTION_DDOT":"0.0000000000000","ARG_OF_PERICENTER":"27.6253","FILE":"3114946","MEAN_MOTION_DOT":"0.00025909","REF_FRAME":"TEME","SEMIMAJOR_AXIS":"6817.896","MEAN_ANOMALY":"176.0699","EPHEMERIS_TYPE":"0","TLE_LINE1":"1 48574U 21041X   21256.91668981  .00025909  00000-0  60290-3 0  9995","SITE":"AFETR","INCLINATION":"53.0543","BSTAR":"0.00060290000000","LAUNCH_DATE":"2021-05-15","PERIOD":"93.376","CLASSIFICATION_TYPE":"U"}];
